CCSDS_OMM_VERS = 2.0
CREATION_DATE  = 
ORIGINATOR     = 

OBJECT_NAME    = STARLINK-36319
OBJECT_ID      = 2026-038K
CENTER_NAME    = EARTH
REF_FRAME      = TEME
TIME_SYSTEM    = UTC
MEAN_ELEMENT_THEORY = SGP/SGP4

EPOCH          = 2026-03-07T06:00:00.999648
MEAN_MOTION    = 15.96427356
ECCENTRICITY   = .00013469
INCLINATION    = 97.2732
RA_OF_ASC_NODE = 76.3525
ARG_OF_PERICENTER = 79.0237
MEAN_ANOMALY   = 49.5700

EPHEMERIS_TYPE = 0
CLASSIFICATION_TYPE = U
NORAD_CAT_ID   = 67970
ELEMENT_SET_NO = 999
REV_AT_EPOCH   = 277
BSTAR          = -.38813571E-2
MEAN_MOTION_DOT = -.1601719E-1
MEAN_MOTION_DDOT = .75417917E-3

CCSDS_OMM_VERS = 2.0
CREATION_DATE  = 
ORIGINATOR     = 

OBJECT_NAME    = STARLINK-36710
OBJECT_ID      = 2026-038L
CENTER_NAME    = EARTH
REF_FRAME      = TEME
TIME_SYSTEM    = UTC
MEAN_ELEMENT_THEORY = SGP/SGP4

EPOCH          = 2026-03-07T06:00:00.999648
MEAN_MOTION    = 15.96732278
ECCENTRICITY   = .00012302
INCLINATION    = 97.2728
RA_OF_ASC_NODE = 76.3559
ARG_OF_PERICENTER = 85.5258
MEAN_ANOMALY   = 50.5515

EPHEMERIS_TYPE = 0
CLASSIFICATION_TYPE = U
NORAD_CAT_ID   = 67971
ELEMENT_SET_NO = 999
REV_AT_EPOCH   = 280
BSTAR          = -.37827085E-2
MEAN_MOTION_DOT = -.1587141E-1
MEAN_MOTION_DDOT = .74390087E-3

CCSDS_OMM_VERS = 2.0
CREATION_DATE  = 
ORIGINATOR     = 

OBJECT_NAME    = STARLINK-36894
OBJECT_ID      = 2026-038M
CENTER_NAME    = EARTH
REF_FRAME      = TEME
TIME_SYSTEM    = UTC
MEAN_ELEMENT_THEORY = SGP/SGP4

EPOCH          = 2026-03-07T06:00:00.999648
MEAN_MOTION    = 15.96863475
ECCENTRICITY   = .00013595
INCLINATION    = 97.2724
RA_OF_ASC_NODE = 76.3573
ARG_OF_PERICENTER = 74.9644
MEAN_ANOMALY   = 64.5020

EPHEMERIS_TYPE = 0
CLASSIFICATION_TYPE = U
NORAD_CAT_ID   = 67972
ELEMENT_SET_NO = 999
REV_AT_EPOCH   = 280
BSTAR          = -.37369215E-2
MEAN_MOTION_DOT = -.1579258E-1
MEAN_MOTION_DDOT = .73809438E-3

CCSDS_OMM_VERS = 2.0
CREATION_DATE  = 
ORIGINATOR     = 

OBJECT_NAME    = STARLINK-36900
OBJECT_ID      = 2026-038N
CENTER_NAME    = EARTH
REF_FRAME      = TEME
TIME_SYSTEM    = UTC
MEAN_ELEMENT_THEORY = SGP/SGP4

EPOCH          = 2026-03-07T06:00:00.999648
MEAN_MOTION    = 15.97134915
ECCENTRICITY   = .00011944
INCLINATION    = 97.2724
RA_OF_ASC_NODE = 76.3600
ARG_OF_PERICENTER = 82.8431
MEAN_ANOMALY   = 63.3890

EPHEMERIS_TYPE = 0
CLASSIFICATION_TYPE = U
NORAD_CAT_ID   = 67973
ELEMENT_SET_NO = 999
REV_AT_EPOCH   = 280
BSTAR          = -.36550773E-2
MEAN_MOTION_DOT = -.1567756E-1
MEAN_MOTION_DDOT = .73027184E-3

CCSDS_OMM_VERS = 2.0
CREATION_DATE  = 
ORIGINATOR     = 

OBJECT_NAME    = STARLINK-36901
OBJECT_ID      = 2026-038P
CENTER_NAME    = EARTH
REF_FRAME      = TEME
TIME_SYSTEM    = UTC
MEAN_ELEMENT_THEORY = SGP/SGP4

EPOCH          = 2026-03-07T06:00:00.999648
MEAN_MOTION    = 15.96994409
ECCENTRICITY   = .00013384
INCLINATION    = 97.2723
RA_OF_ASC_NODE = 76.3584
ARG_OF_PERICENTER = 78.7336
MEAN_ANOMALY   = 63.9405

EPHEMERIS_TYPE = 0
CLASSIFICATION_TYPE = U
NORAD_CAT_ID   = 67974
ELEMENT_SET_NO = 999
REV_AT_EPOCH   = 280
BSTAR          = -.37023683E-2
MEAN_MOTION_DOT = -.1575869E-1
MEAN_MOTION_DDOT = .73619149E-3

CCSDS_OMM_VERS = 2.0
CREATION_DATE  = 
ORIGINATOR     = 

OBJECT_NAME    = STARLINK-36883
OBJECT_ID      = 2026-038Q
CENTER_NAME    = EARTH
REF_FRAME      = TEME
TIME_SYSTEM    = UTC
MEAN_ELEMENT_THEORY = SGP/SGP4

EPOCH          = 2026-03-07T06:00:00.999648
MEAN_MOTION    = 15.97703666
ECCENTRICITY   = .0001319
INCLINATION    = 97.2715
RA_OF_ASC_NODE = 76.3659
ARG_OF_PERICENTER = 79.9663
MEAN_ANOMALY   = 79.9839

EPHEMERIS_TYPE = 0
CLASSIFICATION_TYPE = U
NORAD_CAT_ID   = 67975
ELEMENT_SET_NO = 999
REV_AT_EPOCH   = 280
BSTAR          = -.35308448E-2
MEAN_MOTION_DOT = -.1562415E-1
MEAN_MOTION_DDOT = .73014662E-3

CCSDS_OMM_VERS = 2.0
CREATION_DATE  = 
ORIGINATOR     = 

OBJECT_NAME    = STARLINK-36880
OBJECT_ID      = 2026-038R
CENTER_NAME    = EARTH
REF_FRAME      = TEME
TIME_SYSTEM    = UTC
MEAN_ELEMENT_THEORY = SGP/SGP4

EPOCH          = 2026-03-07T06:00:00.999648
MEAN_MOTION    = 15.97281605
ECCENTRICITY   = .00013169
INCLINATION    = 97.2721
RA_OF_ASC_NODE = 76.3614
ARG_OF_PERICENTER = 82.2302
MEAN_ANOMALY   = 67.4532

EPHEMERIS_TYPE = 0
CLASSIFICATION_TYPE = U
NORAD_CAT_ID   = 67976
ELEMENT_SET_NO = 999
REV_AT_EPOCH   = 280
BSTAR          = -.36341896E-2
MEAN_MOTION_DOT = -.1571307E-1
MEAN_MOTION_DDOT = .73451057E-3

CCSDS_OMM_VERS = 2.0
CREATION_DATE  = 
ORIGINATOR     = 

OBJECT_NAME    = STARLINK-36904
OBJECT_ID      = 2026-038S
CENTER_NAME    = EARTH
REF_FRAME      = TEME
TIME_SYSTEM    = UTC
MEAN_ELEMENT_THEORY = SGP/SGP4

EPOCH          = 2026-03-07T06:00:00.999648
MEAN_MOTION    = 15.97558451
ECCENTRICITY   = .00013545
INCLINATION    = 97.2714
RA_OF_ASC_NODE = 76.3640
ARG_OF_PERICENTER = 78.2572
MEAN_ANOMALY   = 78.2572

EPHEMERIS_TYPE = 0
CLASSIFICATION_TYPE = U
NORAD_CAT_ID   = 67977
ELEMENT_SET_NO = 999
REV_AT_EPOCH   = 280
BSTAR          = -.35593808E-2
MEAN_MOTION_DOT = -.1562555E-1
MEAN_MOTION_DDOT = .72911616E-3

CCSDS_OMM_VERS = 2.0
CREATION_DATE  = 
ORIGINATOR     = 

OBJECT_NAME    = STARLINK-36364
OBJECT_ID      = 2026-038T
CENTER_NAME    = EARTH
REF_FRAME      = TEME
TIME_SYSTEM    = UTC
MEAN_ELEMENT_THEORY = SGP/SGP4

EPOCH          = 2026-03-07T06:00:00.999648
MEAN_MOTION    = 15.98042669
ECCENTRICITY   = .0001296
INCLINATION    = 97.2707
RA_OF_ASC_NODE = 76.3691
ARG_OF_PERICENTER = 75.0611
MEAN_ANOMALY   = 92.9704

EPHEMERIS_TYPE = 0
CLASSIFICATION_TYPE = U
NORAD_CAT_ID   = 67978
ELEMENT_SET_NO = 999
REV_AT_EPOCH   = 280
BSTAR          = -.34819996E-2
MEAN_MOTION_DOT = -.156971E-1
MEAN_MOTION_DDOT = .73922496E-3

CCSDS_OMM_VERS = 2.0
CREATION_DATE  = 
ORIGINATOR     = 

OBJECT_NAME    = STARLINK-36359
OBJECT_ID      = 2026-038U
CENTER_NAME    = EARTH
REF_FRAME      = TEME
TIME_SYSTEM    = UTC
MEAN_ELEMENT_THEORY = SGP/SGP4

EPOCH          = 2026-03-07T06:00:00.999648
MEAN_MOTION    = 15.97399285
ECCENTRICITY   = .00012794
INCLINATION    = 97.2717
RA_OF_ASC_NODE = 76.3620
ARG_OF_PERICENTER = 80.6591
MEAN_ANOMALY   = 71.9151

EPHEMERIS_TYPE = 0
CLASSIFICATION_TYPE = U
NORAD_CAT_ID   = 67979
ELEMENT_SET_NO = 999
REV_AT_EPOCH   = 280
BSTAR          = -.36194468E-2
MEAN_MOTION_DOT = -.1574977E-1
MEAN_MOTION_DDOT = .73864257E-3

CCSDS_OMM_VERS = 2.0
CREATION_DATE  = 
ORIGINATOR     = 

OBJECT_NAME    = STARLINK-36882
OBJECT_ID      = 2026-038V
CENTER_NAME    = EARTH
REF_FRAME      = TEME
TIME_SYSTEM    = UTC
MEAN_ELEMENT_THEORY = SGP/SGP4

EPOCH          = 2026-03-07T06:00:00.999648
MEAN_MOTION    = 15.97884874
ECCENTRICITY   = .00012309
INCLINATION    = 97.2710
RA_OF_ASC_NODE = 76.3672
ARG_OF_PERICENTER = 84.6622
MEAN_ANOMALY   = 79.5243

EPHEMERIS_TYPE = 0
CLASSIFICATION_TYPE = U
NORAD_CAT_ID   = 67980
ELEMENT_SET_NO = 999
REV_AT_EPOCH   = 280
BSTAR          = -.34968397E-2
MEAN_MOTION_DOT = -.1562828E-1
MEAN_MOTION_DDOT = .73194848E-3

CCSDS_OMM_VERS = 2.0
CREATION_DATE  = 
ORIGINATOR     = 

OBJECT_NAME    = STARLINK-36874
OBJECT_ID      = 2026-038W
CENTER_NAME    = EARTH
REF_FRAME      = TEME
TIME_SYSTEM    = UTC
MEAN_ELEMENT_THEORY = SGP/SGP4

EPOCH          = 2026-03-07T06:00:00.999648
MEAN_MOTION    = 15.98152212
ECCENTRICITY   = .00014196
INCLINATION    = 97.2708
RA_OF_ASC_NODE = 76.3702
ARG_OF_PERICENTER = 78.5663
MEAN_ANOMALY   = 92.2795

EPHEMERIS_TYPE = 0
CLASSIFICATION_TYPE = U
NORAD_CAT_ID   = 67981
ELEMENT_SET_NO = 999
REV_AT_EPOCH   = 280
BSTAR          = -.34299009E-2
MEAN_MOTION_DOT = -.1555786E-1
MEAN_MOTION_DDOT = .7279602E-3

